NORAD_CAT_ID,OBJECT_NAME,OBJECT_TYPE,EPOCH,MEAN_MOTION,ECCENTRICITY,INCLINATION,RA_OF_ASC_NODE,ARG_OF_PERICENTER,MEAN_ANOMALY,BSTAR,MEAN_MOTION_DOT,MEAN_MOTION_DDOT,TLE_LINE0,TLE_LINE1,TLE_LINE2,SEMIMAJOR_AXIS,PERIOD,APOGEE,PERIGEE,DECAYED
52102.0,STARLINK-3709,PAYLOAD,2024-02-12 12:48:32,15.08842748,0.000151,53.2146,233.6417,85.0362,275.0803,9.9369e-05,1.294e-05,0.0,0 STARLINK-3709,1 52102U 22029Q   24043.53370459  .00001294  00000-0  99369-4 0  9990,2 52102  53.2146 233.6417 0001510  85.0362 275.0803 15.08842748106638,6917.872,95.437,540.782,538.692,0.0
52102.0,STARLINK-3709,PAYLOAD,2024-02-12 19:10:04,15.08844314,0.0001344,53.2164,232.4474,104.5847,255.5294,5.0071e-05,5.09e-06,0.0,0 STARLINK-3709,1 52102U 22029Q   24043.79866329  .00000509  00000-0  50071-4 0  9999,2 52102  53.2164 232.4474 0001344 104.5847 255.5294 15.08844314106670,6917.867,95.437,540.662,538.802,0.0
52102.0,STARLINK-3709,PAYLOAD,2024-02-13 19:00:51,15.08845659,0.000106,53.2163,227.9886,94.0835,266.0278,1.135e-05,-1.07e-06,0.0,0 STARLINK-3709,1 52102U 22029Q   24044.79226342 -.00000107  00000-0  11350-4 0  9997,2 52102  53.2163 227.9886 0001060  94.0835 266.0278 15.08845659106829,6917.863,95.437,540.461,538.995,0.0
52102.0,STARLINK-3709,PAYLOAD,2024-02-14 04:33:10,15.08842322,0.0001106,53.2153,226.202,110.5071,249.6039,-2.3841e-05,-6.67e-06,0.0,0 STARLINK-3709,1 52102U 22029Q   24045.18970441 -.00000667  00000-0 -23841-4 0  9997,2 52102  53.2153 226.2020 0001106 110.5071 249.6039 15.08842322106889,6917.873,95.437,540.503,538.973,0.0
52102.0,STARLINK-3709,PAYLOAD,2024-02-14 12:30:06,15.08839031,9.74e-05,53.2164,224.7166,103.1447,256.9653,9.9033e-05,1.289e-05,0.0,0 STARLINK-3709,1 52102U 22029Q   24045.52090531  .00001289  00000-0  99033-4 0  9993,2 52102  53.2164 224.7166 0000974 103.1447 256.9653 15.08839031106934,6917.883,95.438,540.422,539.075,0.0
52102.0,STARLINK-3709,PAYLOAD,2024-02-14 18:51:37,15.08851654,0.0001036,53.2156,223.5266,83.4869,276.6241,0.00020058,2.907e-05,0.0,0 STARLINK-3709,1 52102U 22029Q   24045.78585614  .00002907  00000-0  20058-3 0  9990,2 52102  53.2156 223.5266 0001036  83.4869 276.6241 15.08851654106972,6917.845,95.437,540.426,538.993,0.0
52102.0,STARLINK-3709,PAYLOAD,2024-02-15 04:23:57,15.08847443,0.0001058,53.2151,221.7438,93.29,266.8213,0.00017475,2.495e-05,0.0,0 STARLINK-3709,1 52102U 22029Q   24046.18329882  .00002495  00000-0  17475-3 0  9999,2 52102  53.2151 221.7438 0001058  93.2900 266.8213 15.08847443107036,6917.858,95.437,540.455,538.991,0.0
52102.0,STARLINK-3709,PAYLOAD,2024-02-15 18:42:26,15.08830267,0.0001138,53.2156,219.0679,93.5006,266.6116,1.9932e-05,2.9e-07,0.0,0 STARLINK-3709,1 52102U 22029Q   24046.77947482  .00000029  00000-0  19932-4 0  9998,2 52102  53.2156 219.0679 0001138  93.5006 266.6116 15.08830267107123,6917.91,95.438,540.562,538.988,0.0
52102.0,STARLINK-3709,PAYLOAD,2024-02-15 21:53:12,15.08834067,0.0001219,53.2153,218.4719,90.9184,269.1948,4.3962e-05,4.12e-06,0.0,0 STARLINK-3709,1 52102U 22029Q   24046.91195215  .00000412  00000-0  43962-4 0  9999,2 52102  53.2153 218.4719 0001219  90.9184 269.1948 15.08834067107141,6917.899,95.438,540.607,538.92,0.0
52102.0,STARLINK-3709,PAYLOAD,2024-02-16 18:33:12,15.08845484,0.0001251,53.2151,214.6062,90.7218,269.3918,4.0025e-05,3.49e-06,0.0,0 STARLINK-3709,1 52102U 22029Q   24047.77306355  .00000349  00000-0  40025-4 0  9999,2 52102  53.2151 214.6062 0001251  90.7218 269.3918 15.08845484107278,6917.864,95.437,540.594,538.863,0.0
52102.0,STARLINK-3709,PAYLOAD,2024-02-16 20:08:35,15.08848629,0.000126,53.2148,214.3087,92.5609,267.5527,9.9152e-05,1.291e-05,0.0,0 STARLINK-3709,1 52102U 22029Q   24047.83930213  .00001291  00000-0  99152-4 0  9994,2 52102  53.2148 214.3087 0001260  92.5609 267.5527 15.08848629107283,6917.854,95.437,540.591,538.847,0.0
52102.0,STARLINK-3709,PAYLOAD,2024-02-17 10:27:04,15.08836411,0.0001523,53.2155,211.6343,80.6435,279.473,0.00020402,2.96e-05,0.0,0 STARLINK-3709,1 52102U 22029Q   24048.43547143  .00002960  00000-0  20402-3 0  9992,2 52102  53.2155 211.6343 0001523  80.6435 279.4730 15.08836411107377,6917.891,95.438,540.81,538.703,0.0
52102.0,STARLINK-3709,PAYLOAD,2024-02-17 19:59:23,15.08838416,0.0001327,53.2155,209.8483,82.6935,277.4208,0.00014703,2.053e-05,0.0,0 STARLINK-3709,1 52102U 22029Q   24048.83291220  .00002053  00000-0  14703-3 0  9998,2 52102  53.2155 209.8483 0001327  82.6935 277.4208 15.08838416107432,6917.885,95.438,540.668,538.832,0.0
52102.0,STARLINK-3709,PAYLOAD,2024-02-18 15:04:00,15.08848675,0.0001262,53.2153,206.2813,85.2987,274.8149,0.00024362,3.592e-05,0.0,0 STARLINK-3709,1 52102U 22029Q   24049.62778850  .00003592  00000-0  24362-3 0  9996,2 52102  53.2153 206.2813 0001262  85.2987 274.8149 15.08848675107558,6917.854,95.437,540.592,538.846,0.0
52102.0,STARLINK-3709,PAYLOAD,2024-02-18 19:50:10,15.08857908,0.0001377,53.2146,205.3878,77.7686,282.3461,0.00057028,8.804e-05,0.0,0 STARLINK-3709,1 52102U 22029Q   24049.82650617  .00008804  00000-0  57028-3 0  9994,2 52102  53.2146 205.3878 0001377  77.7686 282.3461 15.08857908107583,6917.826,95.436,540.643,538.738,0.0
52102.0,STARLINK-3709,PAYLOAD,2024-02-19 03:47:06,15.08843385,0.0001355,53.2151,203.901,78.5885,281.5259,0.00018745,2.697e-05,0.0,0 STARLINK-3709,1 52102U 22029Q   24050.15771033  .00002697  00000-0  18745-3 0  9995,2 52102  53.2151 203.9010 0001355  78.5885 281.5259 15.08843385107633,6917.87,95.437,540.672,538.798,0.0
52102.0,STARLINK-3709,PAYLOAD,2024-02-19 13:19:25,15.08841113,0.000167,53.2145,202.117,86.5227,273.5956,0.00012092,1.637e-05,0.0,0 STARLINK-3709,1 52102U 22029Q   24050.55515221  .00001637  00000-0  12092-3 0  9996,2 52102  53.2145 202.1170 0001670  86.5227 273.5956 15.08841113107691,6917.877,95.437,540.897,538.587,0.0
52102.0,STARLINK-3709,PAYLOAD,2024-02-19 19:40:57,15.08841556,0.0001556,53.2155,200.9278,86.6205,273.4965,0.00019654,2.841e-05,0.0,0 STARLINK-3709,1 52102U 22029Q   24050.82011268  .00002841  00000-0  19654-3 0  9997,2 52102  53.2155 200.9278 0001556  86.6205 273.4965 15.08841556107732,6917.876,95.437,540.817,538.664,0.0
52102.0,STARLINK-3709,PAYLOAD,2024-02-20 14:45:35,15.0883579,0.0001571,53.2159,197.3579,89.3132,270.804,9.7119e-05,1.258e-05,0.0,0 STARLINK-3709,1 52102U 22029Q   24051.61499812  .00001258  00000-0  97119-4 0  9994,2 52102  53.2159 197.3579 0001571  89.3132 270.8040 15.08835790107856,6917.893,95.438,540.845,538.671,0.0
52102.0,STARLINK-3709,PAYLOAD,2024-02-20 19:31:45,15.08842194,0.0001375,53.2149,196.4645,84.1644,275.9504,0.00016986,2.417e-05,0.0,0 STARLINK-3709,1 52102U 22029Q   24051.81371601  .00002417  00000-0  16986-3 0  9991,2 52102  53.2149 196.4645 0001375  84.1644 275.9504 15.08842194107882,6917.874,95.437,540.69,538.787,0.0
52102.0,STARLINK-3709,PAYLOAD,2024-02-21 14:36:22,15.08841156,0.000135,53.2152,192.8955,87.7764,272.3382,0.00025078,3.706e-05,0.0,0 STARLINK-3709,1 52102U 22029Q   24052.60859807  .00003706  00000-0  25078-3 0  9992,2 52102  53.2152 192.8955 0001350  87.7764 272.3382 15.08841156108002,6917.877,95.437,540.676,538.808,0.0
52102.0,STARLINK-3709,PAYLOAD,2024-02-21 16:11:45,15.0884491,0.0001359,53.2163,192.6018,85.0639,275.0508,0.00029249,4.371e-05,0.0,0 STARLINK-3709,1 52102U 22029Q   24052.67483715  .00004371  00000-0  29249-3 0  9993,2 52102  53.2163 192.6018 0001359  85.0639 275.0508 15.08844910108015,6917.865,95.437,540.671,538.79,0.0
52102.0,STARLINK-3709,PAYLOAD,2024-02-22 09:41:00,15.08839543,0.0001347,53.216,189.3324,89.1577,270.9569,2.1374e-07,-2.85e-06,0.0,0 STARLINK-3709,1 52102U 22029Q   24053.40347837 -.00000285  00000-0  21374-6 0  9994,2 52102  53.2160 189.3324 0001347  89.1577 270.9569 15.08839543108127,6917.882,95.438,540.679,538.815,0.0
52102.0,STARLINK-3709,PAYLOAD,2024-02-22 14:27:09,15.08844975,0.0001348,53.2157,188.4371,96.6559,263.4587,9.5075e-05,1.226e-05,0.0,0 STARLINK-3709,1 52102U 22029Q   24053.60219511  .00001226  00000-0  95075-4 0  9995,2 52102  53.2157 188.4371 0001348  96.6559 263.4587 15.08844975108154,6917.865,95.437,540.663,538.798,0.0
52102.0,STARLINK-3709,PAYLOAD,2024-02-22 16:02:32,15.08844874,0.0001318,53.2162,188.1433,89.6156,270.4987,0.00011796,1.59e-05,0.0,0 STARLINK-3709,1 52102U 22029Q   24053.66843641  .00001590  00000-0  11796-3 0  9999,2 52102  53.2162 188.1433 0001318  89.6156 270.4987 15.08844874108169,6917.865,95.437,540.642,538.819,0.0
52102.0,STARLINK-3709,PAYLOAD,2024-02-23 14:17:57,15.08836573,0.000159,53.2179,183.9833,107.8442,252.2723,-1.6563e-05,-5.52e-06,0.0,0 STARLINK-3709,1 52102U 22029Q   24054.59580159 -.00000552  00000-0 -16563-4 0  9991,2 52102  53.2179 183.9833 0001590 107.8442 252.2723 15.08836573108306,6917.891,95.438,540.856,538.656,0.0
52102.0,STARLINK-3709,PAYLOAD,2024-02-23 17:28:43,15.08837227,0.0001365,53.2172,183.3856,95.5859,264.5289,-3.5578e-05,-8.54e-06,0.0,0 STARLINK-3709,1 52102U 22029Q   24054.72828131 -.00000854  00000-0 -35578-4 0  9993,2 52102  53.2172 183.3856 0001365  95.5859 264.5289 15.08837227108325,6917.889,95.438,540.698,538.81,0.0
52102.0,STARLINK-3709,PAYLOAD,2024-02-24 14:08:44,15.08844766,0.0001409,53.2165,179.5175,84.3707,275.7445,0.00015138,2.122e-05,0.0,0 STARLINK-3709,1 52102U 22029Q   24055.58940053  .00002122  00000-0  15138-3 0  9993,2 52102  53.2165 179.5175 0001409  84.3707 275.7445 15.08844766108453,6917.866,95.437,540.706,538.756,0.0
52102.0,STARLINK-3709,PAYLOAD,2024-02-24 17:19:30,15.08854244,0.0001419,53.2173,178.9243,92.1124,268.0031,0.0003143,4.72e-05,0.0,0 STARLINK-3709,1 52102U 22029Q   24055.72187555  .00004720  00000-0  31430-3 0  9998,2 52102  53.2173 178.9243 0001419  92.1124 268.0031 15.08854244108472,6917.837,95.437,540.683,538.72,0.0
52102.0,STARLINK-3709,PAYLOAD,2024-02-25 12:24:07,15.08847751,0.000175,53.2168,175.3554,105.7007,254.4178,0.00018507,2.659e-05,0.0,0 STARLINK-3709,1 52102U 22029Q   24056.51675752  .00002659  00000-0  18507-3 0  9996,2 52102  53.2168 175.3554 0001750 105.7007 254.4178 15.08847751108590,6917.857,95.437,540.932,538.511,0.0
